ONEWEB-0584             
1 54651U 22166K   22358.74178637  .00002371  00000+0  23269-3 0  9998
2 54651  86.5168 151.3549 0010942 175.5202 184.6125 14.91719075  2657
ONEWEB-0585             
1 54652U 22166L   22358.87892927  .00002203  00000+0  21755-3 0  9990
2 54652  86.5176 151.3008 0009705 174.0187 186.1158 14.91437216  2677
ONEWEB-0586             
1 54653U 22166M   22358.88438990  .00002218  00000+0  22198-3 0  9996
2 54653  86.5193 151.3076 0007783 182.6480 177.4707 14.90923090  2679
ONEWEB-0587             
1 54654U 22166N   22358.87738524  .00002214  00000+0  21781-3 0  9995
2 54654  86.5180 151.3026 0010394 174.1695 185.9655 14.91580601  2671
ONEWEB-0589             
1 54655U 22166P   22358.66820596  .00008433  00000+0  82054-3 0  9993
2 54655  86.5166 151.3837 0013014 185.4789 174.6299 14.92365843  2643
ONEWEB-0590             
1 54656U 22166Q   22358.66906346  .00002431  00000+0  23531-3 0  9999
2 54656  86.5159 151.3831 0012712 183.7427 176.3708 14.92253371  2640
ONEWEB-0591             
1 54657U 22166R   22358.73644799  .00003475  00000+0  33786-3 0  9991
2 54657  86.5191 151.3563 0012644 183.5733 176.5407 14.92223046  2656
ONEWEB-0592             
1 54658U 22166S   22358.91667824 -.00982517  00000+0 -12112+0 0  9997
2 54658  86.4865 151.2845 0007752 180.3545 337.3568 14.86015045  1303
ONEWEB-0593             
1 54659U 22166T   22358.87653264 -.00002542  00000+0 -25630-3 0  9990
2 54659  86.5179 151.3021 0010710 175.7808 184.3512 14.91640136  2679
ONEWEB-0594             
1 54660U 22166U   22358.73856019  .00002461  00000+0  23972-3 0  9995
2 54660  86.5174 151.3561 0012220 179.3952 180.7293 14.92022110  2654
ONEWEB-0595             
1 54661U 22166V   22358.87628104  .00000534  00000+0  50173-4 0  9996
2 54661  86.5182 151.3022 0010806 175.4834 184.6493 14.91678908  2678
ONEWEB-0596             
1 54662U 22166W   22358.87789687  .00002328  00000+0  22952-3 0  9997
2 54662  86.5168 151.2964 0010188 173.9045 186.2308 14.91533447  2678
ONEWEB-0597             
1 54663U 22166X   22358.87110500  .00002321  00000+0  22501-3 0  9993
2 54663  86.5158 151.2941 0012651 181.4784 178.6409 14.92174305  2676
ONEWEB-0600             
1 54664U 22166Y   22358.66838545  .00002547  00000+0  24627-3 0  9998
2 54664  86.5163 151.3834 0012861 184.7966 175.3141 14.92321410  2641
ONEWEB-0601             
1 54665U 22166Z   22358.87129968  .00003163  00000+0  30773-3 0  9998
2 54665  86.5189 151.2971 0012882 182.0843 178.0334 14.92159786  2671
ONEWEB-0602             
1 54666U 22166AA  22358.73769617  .00002404  00000+0  23353-3 0  9998
2 54666  86.5186 151.3563 0012469 180.6579 179.4634 14.92105141  2650
ONEWEB-0603             
1 54667U 22166AB  22358.91667824 -.01095976  00000+0 -13833+0 0  9993
2 54667  86.5288 151.2934 0008284 181.0439 325.5511 14.84889181  1308
ONEWEB-0604             
1 54668U 22166AC  22358.91667824 -.00948122  00000+0 -11416+0 0  9998
2 54668  86.4923 151.2934 0007923 179.2204 346.0647 14.86866837  1305
ONEWEB-0605             
1 54669U 22166AD  22358.91667824 -.01091361  00000+0 -13958+0 0  9997
2 54669  86.5314 151.2971 0007629 183.5596 317.7870 14.84340931  1300
ONEWEB-0606             
1 54670U 22166AE  22358.91667824 -.00958463  00000+0 -11351+0 0  9998
2 54670  86.4959 151.2915 0008261 177.2767 357.6380 14.87566542  1307
ONEWEB-0607             
1 54671U 22166AF  22358.74894833 -.00016018  00000+0 -16329-2 0  9996
2 54671  86.5155 151.3578 0009617 197.8788 162.2102 14.90889133  2659
ONEWEB-0608             
1 54672U 22166AG  22358.87358666 -.00165497  00000+0 -17260-1 0  9990
2 54672  86.5172 151.2975 0013971 182.3740 177.7424 14.90715701  2673
ONEWEB-0610             
1 54673U 22166AH  22358.68191436 -.00259127  00000+0 -28156-1 0  9990
2 54673  86.5153 151.3892 0008343 177.0474 183.0803 14.89656943  2642
ONEWEB-0611             
1 54674U 22166AJ  22358.87655329 -.00212217  00000+0 -22370-1 0  9999
2 54674  86.5185 151.3022 0010565 174.3879 185.7469 14.90588310  2675
ONEWEB-0612             
1 54675U 22166AK  22358.91667824 -.00972128  00000+0 -11861+0 0  9993
2 54675  86.4908 151.2933 0007849 179.8873 341.2965 14.86402455  1302
ONEWEB-0615             
1 54676U 22166AL  22358.91667824 -.00843845  00000+0 -96671-1 0  9991
2 54676  86.5011 151.2861 0010167 173.0246  28.8359 14.88989384  1304
ONEWEB-0655             
1 54677U 22166AM  22358.67784598 -.00264586  00000+0 -28359-1 0  9990
2 54677  86.5168 151.3869 0010054 171.2244 188.9160 14.90221374  2647
ONEWEB-0659             
1 54678U 22166AN  22358.87758400  .00002338  00000+0  23029-3 0  9990
2 54678  86.5169 151.2965 0010302 173.8814 186.2542 14.91563774  2674
ONEWEB-0685             
1 54679U 22166AP  22358.91667824 -.00933243  00000+0 -11494+0 0  9994
2 54679  86.4898 151.2929 0007713 182.1189 330.4948 14.85902004  1301
ONEWEB-0712             
1 54680U 22166AQ  22358.87202135  .00002599  00000+0  25278-3 0  9999
2 54680  86.5184 151.2969 0012436 179.9095 180.2138 14.92092630  2670
ONEWEB-0714             
1 54681U 22166AR  22358.66862354  .00002456  00000+0  23753-3 0  9990
2 54681  86.5186 151.3849 0012779 184.2474 175.8648 14.92297390  2644
